start=new Date('2021-09-26T00:00:00.000Z').valueOf();
sats=[{"TLE_LINE2":"2 46772  53.0546  80.0740 0001974  92.6986 267.4229 15.06394624 51256","DECAY_DATE":null,"RCS_SIZE":"LARGE","MEAN_MOTION":"15.06394624","ARG_OF_PERICENTER":"92.6986","SEMIMAJOR_AXIS":"6925.365","BSTAR":"-0.00002103900000","NORAD_CAT_ID":"46772","REF_FRAME":"TEME","MEAN_ELEMENT_THEORY":"SGP4","PERIOD":"95.592","RA_OF_ASC_NODE":"80.0740","MEAN_ANOMALY":"267.4229","OBJECT_TYPE":"PAYLOAD","OBJECT_ID":"2020-074AK","EPHEMERIS_TYPE":"0","COUNTRY_CODE":"US","TLE_LINE1":"1 46772U 20074AK  21267.78755848 -.00000595  00000-0 -21039-4 0  9999","OBJECT_NAME":"STARLINK-1936","PERIAPSIS":"545.863","ECCENTRICITY":"0.00019740","INCLINATION":"53.0546","SITE":"AFETR","TIME_SYSTEM":"UTC","LAUNCH_DATE":"2020-10-24","CLASSIFICATION_TYPE":"U","APOAPSIS":"548.597","FILE":"3126800","EPOCH":"2021-09-24T18:54:05.052672","REV_AT_EPOCH":"5125","MEAN_MOTION_DDOT":"0.0000000000000","GP_ID":"185428836","MEAN_MOTION_DOT":"-0.00000595","CENTER_NAME":"EARTH","ELEMENT_SET_NO":"999"},{"TLE_LINE2":"2 46774  53.0533  75.0426 0002016  96.1983 263.9236 15.07641236 51415","DECAY_DATE":null,"RCS_SIZE":"LARGE","ARG_OF_PERICENTER":"96.1983","MEAN_MOTION":"15.07641236","BSTAR":"0.00051511000000","SEMIMAJOR_AXIS":"6921.547","NORAD_CAT_ID":"46774","MEAN_ELEMENT_THEORY":"SGP4","REF_FRAME":"TEME","PERIOD":"95.513","MEAN_ANOMALY":"263.9236","RA_OF_ASC_NODE":"75.0426","OBJECT_TYPE":"PAYLOAD","OBJECT_ID":"2020-074AM","ECCENTRICITY":"0.00020160","TLE_LINE1":"1 46774U 20074AM  21268.72891164  .00007659  00000-0  51511-3 0  9991","PERIAPSIS":"542.017","OBJECT_NAME":"STARLINK-1939","EPHEMERIS_TYPE":"0","COUNTRY_CODE":"US","SITE":"AFETR","INCLINATION":"53.0533","TIME_SYSTEM":"UTC","LAUNCH_DATE":"2020-10-24","APOAPSIS":"544.807","EPOCH":"2021-09-25T17:29:37.965696","FILE":"3128274","CLASSIFICATION_TYPE":"U","REV_AT_EPOCH":"5141","GP_ID":"185506101","MEAN_MOTION_DDOT":"0.0000000000000","MEAN_MOTION_DOT":"0.00007659","CENTER_NAME":"EARTH","ELEMENT_SET_NO":"999"},{"MEAN_MOTION":"15.06412327","ARG_OF_PERICENTER":"90.6826","MEAN_ELEMENT_THEORY":"SGP4","REF_FRAME":"TEME","NORAD_CAT_ID":"46775","SEMIMAJOR_AXIS":"6925.311","BSTAR":"0.00023389000000","TLE_LINE2":"2 46775  53.0556  75.7318 0001944  90.6826 269.4386 15.06412327 51392","RCS_SIZE":"LARGE","DECAY_DATE":null,"OBJECT_ID":"2020-074AN","OBJECT_TYPE":"PAYLOAD","COUNTRY_CODE":"US","EPHEMERIS_TYPE":"0","ECCENTRICITY":"0.00019440","TLE_LINE1":"1 46775U 20074AN  21268.75326147  .00003205  00000-0  23389-3 0  9994","PERIAPSIS":"545.829","OBJECT_NAME":"STARLINK-1945","PERIOD":"95.591","RA_OF_ASC_NODE":"75.7318","MEAN_ANOMALY":"269.4386","CLASSIFICATION_TYPE":"U","EPOCH":"2021-09-25T18:04:41.791008","FILE":"3128274","APOAPSIS":"548.522","REV_AT_EPOCH":"5139","SITE":"AFETR","INCLINATION":"53.0556","LAUNCH_DATE":"2020-10-24","TIME_SYSTEM":"UTC","MEAN_MOTION_DOT":"0.00003205","ELEMENT_SET_NO":"999","CENTER_NAME":"EARTH","MEAN_MOTION_DDOT":"0.0000000000000","GP_ID":"185506853"},{"MEAN_MOTION":"15.06397238","ARG_OF_PERICENTER":"95.6221","MEAN_ELEMENT_THEORY":"SGP4","REF_FRAME":"TEME","BSTAR":"-0.00000203320000","SEMIMAJOR_AXIS":"6925.357","NORAD_CAT_ID":"46776","TLE_LINE2":"2 46776  53.0548  75.8293 0001908  95.6221 264.4986 15.06397238 51395","DECAY_DATE":null,"RCS_SIZE":"LARGE","OBJECT_ID":"2020-074AP","OBJECT_TYPE":"PAYLOAD","COUNTRY_CODE":"US","EPHEMERIS_TYPE":"0","OBJECT_NAME":"STARLINK-1946","TLE_LINE1":"1 46776U 20074AP  21268.73115465 -.00000312  00000-0 -20332-5 0  9997","PERIAPSIS":"545.901","ECCENTRICITY":"0.00019080","PERIOD":"95.592","RA_OF_ASC_NODE":"75.8293","MEAN_ANOMALY":"264.4986","CLASSIFICATION_TYPE":"U","FILE":"3128274","EPOCH":"2021-09-25T17:32:51.761760","APOAPSIS":"548.543","REV_AT_EPOCH":"5139","INCLINATION":"53.0548","SITE":"AFETR","LAUNCH_DATE":"2020-10-24","TIME_SYSTEM":"UTC","MEAN_MOTION_DOT":"-0.00000312","ELEMENT_SET_NO":"999","CENTER_NAME":"EARTH","MEAN_MOTION_DDOT":"0.0000000000000","GP_ID":"185507103"},{"MEAN_MOTION_DOT":"0.00917873","CENTER_NAME":"EARTH","ELEMENT_SET_NO":"999","MEAN_MOTION_DDOT":"0.0003809400000","GP_ID":"185506352","CLASSIFICATION_TYPE":"U","APOAPSIS":"295.655","EPOCH":"2021-09-25T18:28:25.535136","FILE":"3128274","REV_AT_EPOCH":"5219","INCLINATION":"53.0473","SITE":"AFETR","TIME_SYSTEM":"UTC","LAUNCH_DATE":"2020-10-24","OBJECT_TYPE":"PAYLOAD","OBJECT_ID":"2020-074AQ","EPHEMERIS_TYPE":"0","COUNTRY_CODE":"US","TLE_LINE1":"1 46777U 20074AQ  21268.76973999  .00917873  38094-3  23855-2 0  9999","ECCENTRICITY":"0.00086520","PERIAPSIS":"284.117","OBJECT_NAME":"STARLINK-1949","PERIOD":"90.314","RA_OF_ASC_NODE":"19.5410","MEAN_ANOMALY":"59.0835","MEAN_MOTION":"15.94436914","ARG_OF_PERICENTER":"300.9341","SEMIMAJOR_AXIS":"6668.021","BSTAR":"0.00238550000000","NORAD_CAT_ID":"46777","MEAN_ELEMENT_THEORY":"SGP4","REF_FRAME":"TEME","TLE_LINE2":"2 46777  53.0473  19.5410 0008652 300.9341  59.0835 15.94436914 52199","RCS_SIZE":"LARGE","DECAY_DATE":null},{"APOAPSIS":"548.314","EPOCH":"2021-09-25T16:19:12.771552","FILE":"3128274","CLASSIFICATION_TYPE":"U","REV_AT_EPOCH":"5173","SITE":"AFETR","INCLINATION":"53.0558","TIME_SYSTEM":"UTC","LAUNCH_DATE":"2020-10-24","MEAN_MOTION_DOT":"-0.00000202","CENTER_NAME":"EARTH","ELEMENT_SET_NO":"999","GP_ID":"185506602","MEAN_MOTION_DDOT":"0.0000000000000","ARG_OF_PERICENTER":"98.7302","MEAN_MOTION":"15.06394263","SEMIMAJOR_AXIS":"6925.366","BSTAR":"0.00000534390000","NORAD_CAT_ID":"46779","REF_FRAME":"TEME","MEAN_ELEMENT_THEORY":"SGP4","TLE_LINE2":"2 46779  53.0558  51.0532 0001564  98.7302 261.3865 15.06394263 51738","RCS_SIZE":"LARGE","DECAY_DATE":null,"OBJECT_ID":"2020-074AS","OBJECT_TYPE":"PAYLOAD","PERIAPSIS":"546.148","TLE_LINE1":"1 46779U 20074AS  21268.68000893 -.00000202  00000-0  53439-5 0  9993","ECCENTRICITY":"0.00015640","OBJECT_NAME":"STARLINK-1798","EPHEMERIS_TYPE":"0","COUNTRY_CODE":"US","PERIOD":"95.593","MEAN_ANOMALY":"261.3865","RA_OF_ASC_NODE":"51.0532"},{"MEAN_MOTION_DOT":"0.00000580","ELEMENT_SET_NO":"999","CENTER_NAME":"EARTH","MEAN_MOTION_DDOT":"0.0000000000000","GP_ID":"185507354","CLASSIFICATION_TYPE":"U","FILE":"3128274","EPOCH":"2021-09-25T16:03:17.096832","APOAPSIS":"548.368","REV_AT_EPOCH":"5173","SITE":"AFETR","INCLINATION":"53.0561","LAUNCH_DATE":"2020-10-24","TIME_SYSTEM":"UTC","OBJECT_TYPE":"PAYLOAD","OBJECT_ID":"2020-074AT","COUNTRY_CODE":"US","EPHEMERIS_TYPE":"0","OBJECT_NAME":"STARLINK-1832","TLE_LINE1":"1 46780U 20074AT  21268.66894788  .00000580  00000-0  57833-4 0  9996","PERIAPSIS":"546.061","ECCENTRICITY":"0.00016660","PERIOD":"95.592","RA_OF_ASC_NODE":"51.1042","MEAN_ANOMALY":"262.5100","MEAN_MOTION":"15.06399629","ARG_OF_PERICENTER":"97.6078","MEAN_ELEMENT_THEORY":"SGP4","REF_FRAME":"TEME","SEMIMAJOR_AXIS":"6925.350","NORAD_CAT_ID":"46780","BSTAR":"0.00005783300000","TLE_LINE2":"2 46780  53.0561  51.1042 0001666  97.6078 262.5100 15.06399629 51738","RCS_SIZE":"LARGE","DECAY_DATE":null},{"OBJECT_ID":"2020-074AU","OBJECT_TYPE":"PAYLOAD","EPHEMERIS_TYPE":"0","COUNTRY_CODE":"US","ECCENTRICITY":"0.00016600","TLE_LINE1":"1 46781U 20074AU  21268.68646680  .00000629  00000-0  61156-4 0  9992","PERIAPSIS":"546.065","OBJECT_NAME":"STARLINK-1834","PERIOD":"95.592","RA_OF_ASC_NODE":"61.0344","MEAN_ANOMALY":"257.3860","MEAN_MOTION":"15.06399663","ARG_OF_PERICENTER":"102.7314","NORAD_CAT_ID":"46781","SEMIMAJOR_AXIS":"6925.350","BSTAR":"0.00006115600000","MEAN_ELEMENT_THEORY":"SGP4","REF_FRAME":"TEME","TLE_LINE2":"2 46781  53.0550  61.0344 0001660 102.7314 257.3860 15.06399663 51606","DECAY_DATE":null,"RCS_SIZE":"LARGE","MEAN_MOTION_DOT":"0.00000629","CENTER_NAME":"EARTH","ELEMENT_SET_NO":"999","MEAN_MOTION_DDOT":"0.0000000000000","GP_ID":"185507604","CLASSIFICATION_TYPE":"U","APOAPSIS":"548.364","EPOCH":"2021-09-25T16:28:30.731520","FILE":"3128274","REV_AT_EPOCH":"5160","INCLINATION":"53.0550","SITE":"AFETR","TIME_SYSTEM":"UTC","LAUNCH_DATE":"2020-10-24"},{"MEAN_MOTION_DOT":"-0.00000021","CENTER_NAME":"EARTH","ELEMENT_SET_NO":"999","GP_ID":"185505852","MEAN_MOTION_DDOT":"0.0000000000000","APOAPSIS":"548.414","EPOCH":"2021-09-25T15:47:21.671808","FILE":"3128274","CLASSIFICATION_TYPE":"U","REV_AT_EPOCH":"5173","INCLINATION":"53.0565","SITE":"AFETR","TIME_SYSTEM":"UTC","LAUNCH_DATE":"2020-10-24","OBJECT_TYPE":"PAYLOAD","OBJECT_ID":"2020-074AV","TLE_LINE1":"1 46782U 20074AV  21268.65788972 -.00000021  00000-0  17496-4 0  9996","PERIAPSIS":"545.955","ECCENTRICITY":"0.00017750","OBJECT_NAME":"STARLINK-1835","EPHEMERIS_TYPE":"0","COUNTRY_CODE":"US","PERIOD":"95.592","MEAN_ANOMALY":"259.7814","RA_OF_ASC_NODE":"51.1720","ARG_OF_PERICENTER":"100.3375","MEAN_MOTION":"15.06409548","SEMIMAJOR_AXIS":"6925.319","NORAD_CAT_ID":"46782","BSTAR":"0.00001749600000","REF_FRAME":"TEME","MEAN_ELEMENT_THEORY":"SGP4","TLE_LINE2":"2 46782  53.0565  51.1720 0001775 100.3375 259.7814 15.06409548 51732","DECAY_DATE":null,"RCS_SIZE":"LARGE"},{"CLASSIFICATION_TYPE":"U","FILE":"3128274","EPOCH":"2021-09-25T16:08:35.430720","APOAPSIS":"548.126","REV_AT_EPOCH":"5173","SITE":"AFETR","INCLINATION":"53.0574","LAUNCH_DATE":"2020-10-24","TIME_SYSTEM":"UTC","MEAN_MOTION_DOT":"0.00000090","ELEMENT_SET_NO":"999","CENTER_NAME":"EARTH","MEAN_MOTION_DDOT":"0.0000000000000","GP_ID":"185506102","MEAN_MOTION":"15.06402449","ARG_OF_PERICENTER":"110.0483","MEAN_ELEMENT_THEORY":"SGP4","REF_FRAME":"TEME","SEMIMAJOR_AXIS":"6925.341","BSTAR":"0.00002494000000","NORAD_CAT_ID":"46783","TLE_LINE2":"2 46783  53.0574  51.0819 0001329 110.0483 250.0649 15.06402449 51737","DECAY_DATE":null,"RCS_SIZE":"LARGE","OBJECT_ID":"2020-074AW","OBJECT_TYPE":"PAYLOAD","COUNTRY_CODE":"US","EPHEMERIS_TYPE":"0","TLE_LINE1":"1 46783U 20074AW  21268.67263230  .00000090  00000-0  24940-4 0  9991","PERIAPSIS":"546.286","ECCENTRICITY":"0.00013290","OBJECT_NAME":"STARLINK-1851","PERIOD":"95.592","RA_OF_ASC_NODE":"51.0819","MEAN_ANOMALY":"250.0649"}];
